NORAD_CAT_ID,OBJECT_NAME,OBJECT_TYPE,EPOCH,MEAN_MOTION,ECCENTRICITY,INCLINATION,RA_OF_ASC_NODE,ARG_OF_PERICENTER,MEAN_ANOMALY,BSTAR,MEAN_MOTION_DOT,MEAN_MOTION_DDOT,TLE_LINE0,TLE_LINE1,TLE_LINE2,SEMIMAJOR_AXIS,PERIOD,APOGEE,PERIGEE,DECAYED
52332.0,STARLINK-3831,PAYLOAD,2023-10-21 07:56:58,15.08838442,0.0001347,53.2153,156.3225,92.5234,267.5912,0.00025802,3.821e-05,0.0,0 STARLINK-3831,1 52332U 22045B   23294.33123015  .00003821  00000-0  25802-3 0  9990,2 52332  53.2153 156.3225 0001347  92.5234 267.5912 15.08838442 84243,6917.885,95.438,540.682,538.818,0.0
52332.0,STARLINK-3831,PAYLOAD,2023-10-21 22:15:26,15.08858866,0.0001452,53.2152,153.6453,90.159,269.9569,0.00094137,0.00014733,0.0,0 STARLINK-3831,1 52332U 22045B   23294.92738729  .00014733  00000-0  94137-3 0  9990,2 52332  53.2152 153.6453 0001452  90.1590 269.9569 15.08858866 84337,6917.823,95.436,540.692,538.683,0.0
52332.0,STARLINK-3831,PAYLOAD,2023-10-21 23:50:49,15.08862954,0.0001438,53.215,153.3482,92.2529,267.8628,0.0010108,0.00015846,0.0,0 STARLINK-3831,1 52332U 22045B   23294.99362578  .00015846  00000-0  10108-2 0  9993,2 52332  53.2150 153.3482 0001438  92.2529 267.8628 15.08862954 84340,6917.81,95.436,540.67,538.68,0.0
52332.0,STARLINK-3831,PAYLOAD,2023-10-22 20:30:50,15.08841777,0.0001417,53.2149,149.4826,81.6807,278.4345,0.00047131,7.221e-05,0.0,0 STARLINK-3831,1 52332U 22045B   23295.85475366  .00007221  00000-0  47131-3 0  9994,2 52332  53.2149 149.4826 0001417  81.6807 278.4345 15.08841777 84472,6917.875,95.437,540.72,538.76,0.0
52332.0,STARLINK-3831,PAYLOAD,2023-10-22 22:06:13,15.08840613,0.0001387,53.2149,149.1853,82.4001,277.7149,0.00049441,7.589e-05,0.0,0 STARLINK-3831,1 52332U 22045B   23295.92099426  .00007589  00000-0  49441-3 0  9994,2 52332  53.2149 149.1853 0001387  82.4001 277.7149 15.08840613 84483,6917.879,95.438,540.703,538.784,0.0
52332.0,STARLINK-3831,PAYLOAD,2023-10-23 07:38:32,15.08839164,0.0001447,53.2146,147.4015,82.7002,277.4155,0.00070264,0.00010912,0.0,0 STARLINK-3831,1 52332U 22045B   23296.31843739  .00010912  00000-0  70264-3 0  9993,2 52332  53.2146 147.4015 0001447  82.7002 277.4155 15.08839164 84542,6917.883,95.438,540.749,538.747,0.0
52332.0,STARLINK-3831,PAYLOAD,2023-10-23 20:21:37,15.08848886,0.0001458,53.2149,145.0222,81.995,278.1207,0.00074017,0.00011514,0.0,0 STARLINK-3831,1 52332U 22045B   23296.84835622  .00011514  00000-0  74017-3 0  9992,2 52332  53.2149 145.0222 0001458  81.9950 278.1207 15.08848886 84620,6917.853,95.437,540.727,538.71,0.0
52332.0,STARLINK-3831,PAYLOAD,2023-10-24 04:18:33,15.08839438,0.0001693,53.215,143.5352,77.8816,282.2366,0.00052905,8.142e-05,0.0,0 STARLINK-3831,1 52332U 22045B   23297.17955716  .00008142  00000-0  52905-3 0  9991,2 52332  53.2150 143.5352 0001693  77.8816 282.2366 15.08839438 84675,6917.882,95.438,540.918,538.576,0.0
52332.0,STARLINK-3831,PAYLOAD,2023-10-24 13:50:52,15.08851203,0.0001545,53.2148,141.7512,81.9581,278.1586,0.00039328,5.978e-05,0.0,0 STARLINK-3831,1 52332U 22045B   23297.57699289  .00005978  00000-0  39328-3 0  9993,2 52332  53.2148 141.7512 0001545  81.9581 278.1586 15.08851203 84730,6917.846,95.437,540.78,538.642,0.0
52332.0,STARLINK-3831,PAYLOAD,2023-10-25 13:41:38,15.08848625,0.0001691,53.215,137.2902,93.9428,266.1758,0.00018619,2.677e-05,0.0,0 STARLINK-3831,1 52332U 22045B   23298.57058739  .00002677  00000-0  18619-3 0  9996,2 52332  53.2150 137.2902 0001691  93.9428 266.1758 15.08848625 84889,6917.854,95.437,540.889,538.549,0.0
52332.0,STARLINK-3831,PAYLOAD,2023-10-25 21:38:34,15.08849097,0.0001468,53.2151,135.8029,85.7293,274.3867,0.00012505,1.703e-05,0.0,0 STARLINK-3831,1 52332U 22045B   23298.90178678  .00001703  00000-0  12505-3 0  9995,2 52332  53.2151 135.8029 0001468  85.7293 274.3867 15.08849097 84937,6917.853,95.437,540.733,538.702,0.0
52332.0,STARLINK-3831,PAYLOAD,2023-10-26 11:57:02,15.08840141,0.0001473,53.215,133.1272,85.5846,274.5314,-7.0491e-05,-1.41e-05,0.0,0 STARLINK-3831,1 52332U 22045B   23299.49794934 -.00001410  00000-0 -70491-4 0  9995,2 52332  53.2150 133.1272 0001473  85.5846 274.5314 15.08840141 85026,6917.88,95.438,540.764,538.726,0.0
52332.0,STARLINK-3831,PAYLOAD,2023-10-26 13:32:26,15.08838515,0.0001426,53.215,132.8298,87.0339,273.0816,7.7152e-06,-1.65e-06,0.0,0 STARLINK-3831,1 52332U 22045B   23299.56419049 -.00000165  00000-0  77152-5 0  9991,2 52332  53.2150 132.8298 0001426  87.0339 273.0816 15.08838515 85036,6917.885,95.438,540.736,538.763,0.0
52332.0,STARLINK-3831,PAYLOAD,2023-10-26 21:29:21,15.08845236,0.0001406,53.2151,131.3429,86.7269,273.3884,5.8554e-05,6.44e-06,0.0,0 STARLINK-3831,1 52332U 22045B   23299.89538669  .00000644  00000-0  58554-4 0  9992,2 52332  53.2151 131.3429 0001406  86.7269 273.3884 15.08845236 85084,6917.864,95.437,540.702,538.757,0.0
52332.0,STARLINK-3831,PAYLOAD,2023-10-27 13:23:12,15.08842017,0.0001377,53.215,128.3689,87.53,272.5849,0.00012245,1.662e-05,0.0,0 STARLINK-3831,1 52332U 22045B   23300.55778785  .00001662  00000-0  12245-3 0  9990,2 52332  53.2150 128.3689 0001377  87.5300 272.5849 15.08842017 85186,6917.874,95.437,540.692,538.787,0.0
52332.0,STARLINK-3831,PAYLOAD,2023-10-27 21:20:08,15.08846657,0.0001388,53.215,126.882,87.0829,273.0322,0.00014709,2.054e-05,0.0,0 STARLINK-3831,1 52332U 22045B   23300.88898488  .00002054  00000-0  14709-3 0  9992,2 52332  53.2150 126.8820 0001388  87.0829 273.0322 15.08846657 85231,6917.86,95.437,540.685,538.765,0.0
52332.0,STARLINK-3831,PAYLOAD,2023-10-28 11:38:37,15.08833374,0.000149,53.2149,124.2065,81.7093,278.4068,2.6791e-05,1.38e-06,0.0,0 STARLINK-3831,1 52332U 22045B   23301.48515279  .00000138  00000-0  26791-4 0  9999,2 52332  53.2149 124.2065 0001490  81.7093 278.4068 15.08833374 85328,6917.901,95.438,540.796,538.735,0.0
52332.0,STARLINK-3831,PAYLOAD,2023-10-28 19:35:33,15.08831978,0.0001433,53.2147,122.7193,87.3812,272.7344,-1.2228e-05,-4.82e-06,0.0,0 STARLINK-3831,1 52332U 22045B   23301.81635439 -.00000482  00000-0 -12228-4 0  9991,2 52332  53.2147 122.7193 0001433  87.3812 272.7344 15.08831978 85376,6917.905,95.438,540.761,538.779,0.0
52332.0,STARLINK-3831,PAYLOAD,2023-10-29 05:07:51,15.08840659,0.00014,53.216,120.9351,85.9832,274.132,4.7165e-05,4.63e-06,0.0,0 STARLINK-3831,1 52332U 22045B   23302.21379419  .00000463  00000-0  47165-4 0  9994,2 52332  53.2160 120.9351 0001400  85.9832 274.1320 15.08840659 85430,6917.878,95.438,540.712,538.775,0.0
52332.0,STARLINK-3831,PAYLOAD,2023-10-29 21:01:42,15.0884674,0.0001397,53.2146,117.9617,82.6792,277.4358,0.00013971,1.937e-05,0.0,0 STARLINK-3831,1 52332U 22045B   23302.87618846  .00001937  00000-0  13971-3 0  9990,2 52332  53.2146 117.9617 0001397  82.6792 277.4358 15.08846740 85534,6917.86,95.437,540.691,538.758,0.0
52332.0,STARLINK-3831,PAYLOAD,2023-10-30 11:20:11,15.08840345,0.0001543,53.2153,115.286,85.0269,275.09,0.00012693,1.733e-05,0.0,0 STARLINK-3831,1 52332U 22045B   23303.47235283  .00001733  00000-0  12693-3 0  9991,2 52332  53.2153 115.2860 0001543  85.0269 275.0900 15.08840345 85624,6917.879,95.438,540.812,538.677,0.0
52332.0,STARLINK-3831,PAYLOAD,2023-10-30 20:52:30,15.08841609,0.000136,53.2152,113.5007,86.7873,273.3275,5.4341e-05,5.77e-06,0.0,0 STARLINK-3831,1 52332U 22045B   23303.86979241  .00000577  00000-0  54341-4 0  9995,2 52332  53.2152 113.5007 0001360  86.7873 273.3275 15.08841609 85689,6917.875,95.437,540.681,538.8,0.0
52332.0,STARLINK-3831,PAYLOAD,2023-10-31 04:49:26,15.08834748,0.0001304,53.215,112.0132,94.9723,265.1418,7.7355e-05,9.43e-06,0.0,0 STARLINK-3831,1 52332U 22045B   23304.20099679  .00000943  00000-0  77355-4 0  9999,2 52332  53.2150 112.0132 0001304  94.9723 265.1418 15.08834748 85733,6917.896,95.438,540.664,538.859,0.0
52332.0,STARLINK-3831,PAYLOAD,2023-10-31 11:10:58,15.08840982,0.0001403,53.2162,110.8238,86.0196,274.0957,3.3463e-05,2.45e-06,0.0,0 STARLINK-3831,1 52332U 22045B   23304.46595641  .00000245  00000-0  33463-4 0  9994,2 52332  53.2162 110.8238 0001403  86.0196 274.0957 15.08840982 85773,6917.877,95.437,540.713,538.772,0.0
52332.0,STARLINK-3831,PAYLOAD,2023-10-31 17:32:30,15.08843087,0.000136,53.2161,109.6343,86.2258,273.889,5.4865e-05,5.85e-06,0.0,0 STARLINK-3831,1 52332U 22045B   23304.73091414  .00000585  00000-0  54865-4 0  9999,2 52332  53.2161 109.6343 0001360  86.2258 273.8890 15.08843087 85815,6917.871,95.437,540.677,538.795,0.0
52332.0,STARLINK-3831,PAYLOAD,2023-11-01 14:12:31,15.08854702,0.0001423,53.2161,105.7687,83.1524,276.963,-0.00022053,-3.797e-05,0.0,0 STARLINK-3831,1 52332U 22045B   23305.59203201 -.00003797  00000-0 -22053-3 0  9996,2 52332  53.2161 105.7687 0001423  83.1524 276.9630 15.08854702 85941,6917.835,95.437,540.685,538.716,0.0
52332.0,STARLINK-3831,PAYLOAD,2023-11-01 20:34:04,15.08840201,0.0001282,53.2161,104.5788,88.6328,271.4811,7.3699e-05,8.85e-06,0.0,0 STARLINK-3831,1 52332U 22045B   23305.85699586  .00000885  00000-0  73699-4 0  9996,2 52332  53.2161 104.5788 0001282  88.6328 271.4811 15.08840201 85989,6917.88,95.438,540.632,538.858,0.0
52332.0,STARLINK-3831,PAYLOAD,2023-11-02 14:03:18,15.088441,0.0001264,53.2162,101.3078,88.2235,271.8902,0.0001232,1.674e-05,0.0,0 STARLINK-3831,1 52332U 22045B   23306.58563254  .00001674  00000-0  12320-3 0  9999,2 52332  53.2162 101.3078 0001264  88.2235 271.8902 15.08844100 86090,6917.868,95.437,540.607,538.858,0.0
52332.0,STARLINK-3831,PAYLOAD,2023-11-02 17:14:04,15.08847485,0.0001266,53.2162,100.7132,87.6721,272.4417,0.00014286,1.987e-05,0.0,0 STARLINK-3831,1 52332U 22045B   23306.71810979  .00001987  00000-0  14286-3 0  9993,2 52332  53.2162 100.7132 0001266  87.6721 272.4417 15.08847485 86119,6917.858,95.437,540.598,538.847,0.0
52332.0,STARLINK-3831,PAYLOAD,2023-11-03 01:11:00,15.08843331,0.0001276,53.2163,99.2264,87.2944,272.8194,0.00012387,1.684e-05,0.0,0 STARLINK-3831,1 52332U 22045B   23307.04931242  .00001684  00000-0  12387-3 0  9991,2 52332  53.2163  99.2264 0001276  87.2944 272.8194 15.08843331 86169,6917.87,95.437,540.618,538.852,0.0
